[{"OBJECT_NAME":"STARLINK-6375","OBJECT_ID":"2023-099Q","EPOCH":"2026-03-09T22:00:01.999584","MEAN_MOTION":15.14521193,"ECCENTRICITY":0.00010633,"INCLINATION":42.9989,"RA_OF_ASC_NODE":246.9587,"ARG_OF_PERICENTER":268.74,"MEAN_ANOMALY":316.4997,"EPHEMERIS_TYPE":0,"CLASSIFICATION_TYPE":"U","NORAD_CAT_ID":57342,"ELEMENT_SET_NO":999,"REV_AT_EPOCH":573,"BSTAR":0.0068816451,"MEAN_MOTION_DOT":0.00131219,"MEAN_MOTION_DDOT":0},{"OBJECT_NAME":"KOYOH","OBJECT_ID":"2023-185C","EPOCH":"2026-03-09T23:57:30.987648","MEAN_MOTION":15.16984541,"ECCENTRICITY":0.00055962,"INCLINATION":97.5396,"RA_OF_ASC_NODE":141.7167,"ARG_OF_PERICENTER":294.7057,"MEAN_ANOMALY":65.3594,"EPHEMERIS_TYPE":0,"CLASSIFICATION_TYPE":"U","NORAD_CAT_ID":58464,"ELEMENT_SET_NO":999,"REV_AT_EPOCH":12508,"BSTAR":0.00043532489,"MEAN_MOTION_DOT":8.537e-5,"MEAN_MOTION_DDOT":0}]
